CCSDS_OMM_VERS = 2.0
CREATION_DATE  = 
ORIGINATOR     = 

OBJECT_NAME    = UNKNOWN
OBJECT_ID      = 
CENTER_NAME    = EARTH
REF_FRAME      = TEME
TIME_SYSTEM    = UTC
MEAN_ELEMENT_THEORY = SGP/SGP4

EPOCH          = 2026-03-25T14:18:05.166432
MEAN_MOTION    = 14.02416885
ECCENTRICITY   = .0516473
INCLINATION    = 65.5328
RA_OF_ASC_NODE = 304.6752
ARG_OF_PERICENTER = 340.8747
MEAN_ANOMALY   = 17.3543

EPHEMERIS_TYPE = 0
CLASSIFICATION_TYPE = U
NORAD_CAT_ID   = 85237
ELEMENT_SET_NO = 999
REV_AT_EPOCH   = 62276
BSTAR          = .69292E-3
MEAN_MOTION_DOT = .342E-4
MEAN_MOTION_DDOT = 0

CCSDS_OMM_VERS = 2.0
CREATION_DATE  = 
ORIGINATOR     = 

OBJECT_NAME    = UNKNOWN
OBJECT_ID      = 
CENTER_NAME    = EARTH
REF_FRAME      = TEME
TIME_SYSTEM    = UTC
MEAN_ELEMENT_THEORY = SGP/SGP4

EPOCH          = 2026-03-29T01:11:22.423776
MEAN_MOTION    = 13.88364155
ECCENTRICITY   = .0062365
INCLINATION    = 99.0699
RA_OF_ASC_NODE = 19.2338
ARG_OF_PERICENTER = 273.4062
MEAN_ANOMALY   = 102.1890

EPHEMERIS_TYPE = 0
CLASSIFICATION_TYPE = U
NORAD_CAT_ID   = 85238
ELEMENT_SET_NO = 999
REV_AT_EPOCH   = 62559
BSTAR          = .55347E-4
MEAN_MOTION_DOT = .24E-6
MEAN_MOTION_DDOT = 0

CCSDS_OMM_VERS = 2.0
CREATION_DATE  = 
ORIGINATOR     = 

OBJECT_NAME    = UNKNOWN
OBJECT_ID      = 
CENTER_NAME    = EARTH
REF_FRAME      = TEME
TIME_SYSTEM    = UTC
MEAN_ELEMENT_THEORY = SGP/SGP4

EPOCH          = 2026-03-30T22:29:22.550784
MEAN_MOTION    = 14.21886595
ECCENTRICITY   = .0221824
INCLINATION    = 97.9914
RA_OF_ASC_NODE = 88.3270
ARG_OF_PERICENTER = 345.1789
MEAN_ANOMALY   = 14.2957

EPHEMERIS_TYPE = 0
CLASSIFICATION_TYPE = U
NORAD_CAT_ID   = 85246
ELEMENT_SET_NO = 999
REV_AT_EPOCH   = 63844
BSTAR          = .10503E-2
MEAN_MOTION_DOT = .2933E-4
MEAN_MOTION_DDOT = 0

CCSDS_OMM_VERS = 2.0
CREATION_DATE  = 
ORIGINATOR     = 

OBJECT_NAME    = UNKNOWN
OBJECT_ID      = 
CENTER_NAME    = EARTH
REF_FRAME      = TEME
TIME_SYSTEM    = UTC
MEAN_ELEMENT_THEORY = SGP/SGP4

EPOCH          = 2026-03-30T09:00:19.280160
MEAN_MOTION    = 14.00538589
ECCENTRICITY   = .0050587
INCLINATION    = 100.4276
RA_OF_ASC_NODE = 145.3913
ARG_OF_PERICENTER = 315.4133
MEAN_ANOMALY   = 104.9910

EPHEMERIS_TYPE = 0
CLASSIFICATION_TYPE = U
NORAD_CAT_ID   = 85373
ELEMENT_SET_NO = 999
REV_AT_EPOCH   = 62719
BSTAR          = .2011E-2
MEAN_MOTION_DOT = .2966E-4
MEAN_MOTION_DDOT = 0

CCSDS_OMM_VERS = 2.0
CREATION_DATE  = 
ORIGINATOR     = 

OBJECT_NAME    = UNKNOWN
OBJECT_ID      = 
CENTER_NAME    = EARTH
REF_FRAME      = TEME
TIME_SYSTEM    = UTC
MEAN_ELEMENT_THEORY = SGP/SGP4

EPOCH          = 2026-03-21T02:12:52.000128
MEAN_MOTION    = 1.04170165
ECCENTRICITY   = .02375
INCLINATION    = 0.2500
RA_OF_ASC_NODE = 63.9100
ARG_OF_PERICENTER = 184.1600
MEAN_ANOMALY   = 179.3500

EPHEMERIS_TYPE = 0
CLASSIFICATION_TYPE = U
NORAD_CAT_ID   = 85423
ELEMENT_SET_NO = 999
REV_AT_EPOCH   = 1
BSTAR          = 0
MEAN_MOTION_DOT = -.119E-5
MEAN_MOTION_DDOT = 0

CCSDS_OMM_VERS = 2.0
CREATION_DATE  = 
ORIGINATOR     = 

OBJECT_NAME    = UNKNOWN
OBJECT_ID      = 
CENTER_NAME    = EARTH
REF_FRAME      = TEME
TIME_SYSTEM    = UTC
MEAN_ELEMENT_THEORY = SGP/SGP4

EPOCH          = 2026-03-13T14:50:02.497344
MEAN_MOTION    = 15.68404032
ECCENTRICITY   = .0007289
INCLINATION    = 41.4606
RA_OF_ASC_NODE = 155.5047
ARG_OF_PERICENTER = 313.6966
MEAN_ANOMALY   = 141.3444

EPHEMERIS_TYPE = 0
CLASSIFICATION_TYPE = U
NORAD_CAT_ID   = 85448
ELEMENT_SET_NO = 999
REV_AT_EPOCH   = 0
BSTAR          = 0
MEAN_MOTION_DOT = -.384E-5
MEAN_MOTION_DDOT = 0

CCSDS_OMM_VERS = 2.0
CREATION_DATE  = 
ORIGINATOR     = 

OBJECT_NAME    = UNKNOWN
OBJECT_ID      = 
CENTER_NAME    = EARTH
REF_FRAME      = TEME
TIME_SYSTEM    = UTC
MEAN_ELEMENT_THEORY = SGP/SGP4

EPOCH          = 2026-03-31T10:04:39.468000
MEAN_MOTION    = 13.52458407
ECCENTRICITY   = .0052431
INCLINATION    = 100.4807
RA_OF_ASC_NODE = 65.7372
ARG_OF_PERICENTER = 341.0701
MEAN_ANOMALY   = 170.8054

EPHEMERIS_TYPE = 0
CLASSIFICATION_TYPE = U
NORAD_CAT_ID   = 87014
ELEMENT_SET_NO = 999
REV_AT_EPOCH   = 60560
BSTAR          = .43358E-2
MEAN_MOTION_DOT = .2844E-4
MEAN_MOTION_DDOT = 0

CCSDS_OMM_VERS = 2.0
CREATION_DATE  = 
ORIGINATOR     = 

OBJECT_NAME    = UNKNOWN
OBJECT_ID      = 
CENTER_NAME    = EARTH
REF_FRAME      = TEME
TIME_SYSTEM    = UTC
MEAN_ELEMENT_THEORY = SGP/SGP4

EPOCH          = 2026-03-27T19:28:07.390560
MEAN_MOTION    = 14.04747797
ECCENTRICITY   = .0080255
INCLINATION    = 98.7455
RA_OF_ASC_NODE = 123.3128
ARG_OF_PERICENTER = 315.8016
MEAN_ANOMALY   = 43.6758

EPHEMERIS_TYPE = 0
CLASSIFICATION_TYPE = U
NORAD_CAT_ID   = 87029
ELEMENT_SET_NO = 999
REV_AT_EPOCH   = 60775
BSTAR          = .70759E-3
MEAN_MOTION_DOT = .1124E-4
MEAN_MOTION_DDOT = 0

CCSDS_OMM_VERS = 2.0
CREATION_DATE  = 
ORIGINATOR     = 

OBJECT_NAME    = UNKNOWN
OBJECT_ID      = 
CENTER_NAME    = EARTH
REF_FRAME      = TEME
TIME_SYSTEM    = UTC
MEAN_ELEMENT_THEORY = SGP/SGP4

EPOCH          = 2026-03-28T20:01:10.217856
MEAN_MOTION    = 14.07306101
ECCENTRICITY   = .0044488
INCLINATION    = 98.6991
RA_OF_ASC_NODE = 132.1755
ARG_OF_PERICENTER = 154.8644
MEAN_ANOMALY   = 205.4704

EPHEMERIS_TYPE = 0
CLASSIFICATION_TYPE = U
NORAD_CAT_ID   = 87042
ELEMENT_SET_NO = 999
REV_AT_EPOCH   = 56888
BSTAR          = .59516E-3
MEAN_MOTION_DOT = .966E-5
MEAN_MOTION_DDOT = 0

CCSDS_OMM_VERS = 2.0
CREATION_DATE  = 
ORIGINATOR     = 

OBJECT_NAME    = UNKNOWN
OBJECT_ID      = 
CENTER_NAME    = EARTH
REF_FRAME      = TEME
TIME_SYSTEM    = UTC
MEAN_ELEMENT_THEORY = SGP/SGP4

EPOCH          = 2026-03-31T00:00:58.691520
MEAN_MOTION    = 13.46361079
ECCENTRICITY   = .0708447
INCLINATION    = 65.7321
RA_OF_ASC_NODE = 356.1734
ARG_OF_PERICENTER = 91.6501
MEAN_ANOMALY   = 276.5757

EPHEMERIS_TYPE = 0
CLASSIFICATION_TYPE = U
NORAD_CAT_ID   = 87051
ELEMENT_SET_NO = 999
REV_AT_EPOCH   = 60315
BSTAR          = .12709E-2
MEAN_MOTION_DOT = .3606E-4
MEAN_MOTION_DDOT = 0

CCSDS_OMM_VERS = 2.0
CREATION_DATE  = 
ORIGINATOR     = 

OBJECT_NAME    = UNKNOWN
OBJECT_ID      = 
CENTER_NAME    = EARTH
REF_FRAME      = TEME
TIME_SYSTEM    = UTC
MEAN_ELEMENT_THEORY = SGP/SGP4

EPOCH          = 2026-03-29T23:45:29.466432
MEAN_MOTION    = 14.11554712
ECCENTRICITY   = .0014052
INCLINATION    = 100.0873
RA_OF_ASC_NODE = 346.5863
ARG_OF_PERICENTER = 51.7294
MEAN_ANOMALY   = 308.5135

EPHEMERIS_TYPE = 0
CLASSIFICATION_TYPE = U
NORAD_CAT_ID   = 87054
ELEMENT_SET_NO = 999
REV_AT_EPOCH   = 63145
BSTAR          = .12237E-2
MEAN_MOTION_DOT = .217E-4
MEAN_MOTION_DDOT = 0

